COSMOS 2433 (720)       
1 32275U 07052A   23020.17397083 -.00000049  00000+0  00000+0 0  9990
2 32275  66.0658 357.4778 0005056 264.4709 297.1809  2.13104132118587
COSMOS 2432 (719)       
1 32276U 07052B   23021.15969580 -.00000053  00000+0  00000+0 0  9992
2 32276  66.0796 357.5496 0011759 317.3430 228.2110  2.13103387118609
COSMOS 2434 (721)       
1 32393U 07065A   23021.24347778  .00000100  00000+0  00000+0 0  9997
2 32393  64.3541 233.9997 0004753  73.4290 119.0328  2.13103163117318
COSMOS 2436 (723)       
1 32395U 07065C   23021.09034155  .00000102  00000+0  00000+0 0  9996
2 32395  64.3626 234.0646 0016923   7.0969 203.5624  2.13102911117245
COSMOS 2456 (730)       
1 36111U 09070A   23021.26879962 -.00000001  00000+0  00000+0 0  9995
2 36111  64.4141 113.5727 0002839 301.2739  73.1096  2.13099146101987
COSMOS 2457 (733)       
1 36112U 09070B   23020.49318225 -.00000005  00000+0  00000+0 0  9994
2 36112  64.3979 113.4702 0005755 166.2684 102.1060  2.13101311101966
COSMOS 2460 (732)       
1 36402U 10007C   23021.21226583 -.00000054  00000+0  00000+0 0  9998
2 36402  65.9323 356.1959 0002624 292.1250 153.7265  2.13106444100339
COSMOS 2476 (744)       
1 37867U 11064A   23021.36160569  .00000000  00000+0  00000+0 0  9995
2 37867  64.6998 115.0106 0022235 233.7066 119.2485  2.13101810 87327
COSMOS 2477 (745)       
1 37868U 11064B   23020.67580363 -.00000004  00000+0  00000+0 0  9992
2 37868  64.7067 115.1006 0019502 233.9683 130.8578  2.13101584 87270
COSMOS 2475 (743)       
1 37869U 11064C   23020.62523892 -.00000004  00000+0  00000+0 0  9992
2 37869  64.7142 115.1119 0023418 251.6618  32.6043  2.13101774 87273
COSMOS 2485 (747)       
1 39155U 13019A   23020.75606115 -.00000003  00000+0  00000+0 0  9997
2 39155  64.8615 115.5060 0022679 228.9474  63.8385  2.13101786 75784
COSMOS 2492 (754)       
1 39620U 14012A   23020.55751500 -.00000052  00000+0  00000+0 0  9999
2 39620  65.8175 355.8687 0015071 316.2998 218.4839  2.13103235 68737
COSMOS 2500 (755)       
1 40001U 14032A   23020.13238720 -.00000050  00000+0  00000+0 0  9992
2 40001  65.7571 355.7284 0007140 224.4712 202.2172  2.13102429 66941
COSMOS 2501 (702K)      
1 40315U 14075A   23020.62985545  .00000107  00000+0  00000+0 0  9997
2 40315  63.6590 233.5739 0017059 205.2879  52.0822  2.13101392 63359
COSMOS 2514 (751)       
1 41330U 16008A   23020.27448092 -.00000052  00000+0  00000+0 0  9995
2 41330  65.5563 355.3606 0010548 226.4086 133.5025  2.13102549 54114
COSMOS 2516 (753)       
1 41554U 16032A   23018.98781231  .00000120  00000+0  00000+0 0  9995
2 41554  63.8858 233.9677 0013795 211.5966 148.3997  2.13106558 51694
COSMOS 2522 (752)       
1 42939U 17055A   23020.55524214  .00000108  00000+0  00000+0 0  9997
2 42939  64.1196 234.3726 0005264 240.1125  95.6160  2.13102058 41470
COSMOS 2527 (756)       
1 43508U 18053A   23021.44574946  .00000001  00000+0  00000+0 0  9997
2 43508  65.0227 115.5277 0008621 223.7321 107.1403  2.13102463 35780
COSMOS 2529 (757)       
1 43687U 18086A   23020.17313096  .00000112  00000+0  00000+0 0  9990
2 43687  64.3351 234.7603 0007254 271.9980  86.0657  2.13102118 32771
COSMOS 2534 (758)       
1 44299U 19030A   23021.08807522  .00000102  00000+0  00000+0 0  9992
2 44299  64.4069 234.6340 0010409 295.3538 178.9896  2.13101952 28440
COSMOS 2544 (759)       
1 44850U 19088A   23020.48834220 -.00000004  00000+0  16595+1 0  9995
2 44850  65.0081 115.4096 0012625 252.9284 106.7399  2.13102272 24198
COSMOS 2545 (760)       
1 45358U 20018A   23020.45764897 -.00000053  00000+0  00000+0 0  9990
2 45358  64.8948 355.7849 0011195 256.6222 288.7205  2.13102737 22157
COSMOS 2547 (705K)      
1 46805U 20075A   23020.76901337  .00000107  00000+0  00000+0 0  9996
2 46805  64.6329 234.1335 0005411 243.7058  34.2916  2.13103035 17401
COSMOS 2557 (706K)      
1 52984U 22075A   23020.31851053 -.00000052  00000+0  10000-3 0  9998
2 52984  64.8037 357.9742 0014057 283.2034 246.1485  2.13102042  4193
COSMOS 2559 (707K)      
1 54031U 22130A   23020.30034662 -.00000052  00000+0  00000+0 0  9998
2 54031  64.7741 358.1105 0007153 236.8734 323.7764  2.13101186  2171
COSMOS 2564 (761)       
1 54377U 22161A   23020.40007586  .00000111  00000+0  00000+0 0  9996
2 54377  64.7727 234.1583 0006839 213.5480 273.8908  2.13102366  1121
